YAOGAN-43 01G           
1 60464U 24148G   26068.44348481  .00010133  00000+0  35873-3 0  9993
2 60464  35.0006  62.0013 0007382 306.3543  53.6492 15.28332833 87004
STARLINK-35425          
1 65874U 25223W   26068.88362698  .00032871  00000+0  11164-2 0  9991
2 65874  53.1607 293.3930 0000546 104.8489 255.2572 15.30220177 24239
